[{"OBJECT_NAME":"TIANQI-23","OBJECT_ID":"2023-135C","EPOCH":"2026-03-09T20:31:13.186272","MEAN_MOTION":14.2309434,"ECCENTRICITY":0.00136094,"INCLINATION":49.9718,"RA_OF_ASC_NODE":210.4766,"ARG_OF_PERICENTER":271.4646,"MEAN_ANOMALY":88.4707,"EPHEMERIS_TYPE":0,"CLASSIFICATION_TYPE":"U","NORAD_CAT_ID":57794,"ELEMENT_SET_NO":999,"REV_AT_EPOCH":13048,"BSTAR":0.00026414029,"MEAN_MOTION_DOT":4.41e-6,"MEAN_MOTION_DDOT":0},{"OBJECT_NAME":"PEGASUS DEB","OBJECT_ID":"1994-029AFM","EPOCH":"2026-03-08T23:15:51.953184","MEAN_MOTION":14.33874448,"ECCENTRICITY":0.03356187,"INCLINATION":81.3387,"RA_OF_ASC_NODE":74.0014,"ARG_OF_PERICENTER":52.9091,"MEAN_ANOMALY":310.2272,"EPHEMERIS_TYPE":0,"CLASSIFICATION_TYPE":"U","NORAD_CAT_ID":39914,"ELEMENT_SET_NO":999,"REV_AT_EPOCH":60479,"BSTAR":0.002295222,"MEAN_MOTION_DOT":0.00012116,"MEAN_MOTION_DDOT":0}]
